[{"OBJECT_NAME":"STARLINK-31820","OBJECT_ID":"2024-088T","EPOCH":"2026-03-09T11:00:27.814464","MEAN_MOTION":15.30186376,"ECCENTRICITY":0.00012054,"INCLINATION":53.1609,"RA_OF_ASC_NODE":141.2066,"ARG_OF_PERICENTER":67.96,"MEAN_ANOMALY":292.1529,"EPHEMERIS_TYPE":0,"CLASSIFICATION_TYPE":"U","NORAD_CAT_ID":59725,"ELEMENT_SET_NO":999,"REV_AT_EPOCH":10364,"BSTAR":2.8883534e-5,"MEAN_MOTION_DOT":4.96e-6,"MEAN_MOTION_DDOT":0},{"OBJECT_NAME":"KUIPER-00222","OBJECT_ID":"2026-030U","EPOCH":"2026-03-09T16:13:57.726048","MEAN_MOTION":15.32445377,"ECCENTRICITY":0.00128002,"INCLINATION":51.8817,"RA_OF_ASC_NODE":219.7147,"ARG_OF_PERICENTER":40.1845,"MEAN_ANOMALY":320.0084,"EPHEMERIS_TYPE":0,"CLASSIFICATION_TYPE":"U","NORAD_CAT_ID":67782,"ELEMENT_SET_NO":999,"REV_AT_EPOCH":508,"BSTAR":0.0017317201,"MEAN_MOTION_DOT":0.00055223,"MEAN_MOTION_DDOT":0}]
